H1 CPF  1  DLR 2022 04 14 10  6042 technosat            
H2  1704205 6203    42829 2022 04 14 00 00 00 2022 04 21 00 00 00    60 1 1  0 0 0
H9
10 0 59683  57600.000000  0       3573374.604       5516812.949      -2311399.936
10 0 59683  57660.000000  0       3560350.216       5330785.535      -2730550.905
10 0 59683  57720.000000  0       3530566.058       5122434.938      -3138088.472
10 0 59683  57780.000000  0       3483963.207       4892796.764      -3532284.719
10 0 59683  57840.000000  0       3420563.579       4642996.585      -3911470.360
10 0 59683  57900.000000  0       3340470.431       4374244.187      -4274041.811
10 0 59683  57960.000000  0       3243868.427       4087827.472      -4618467.995
10 0 59683  58020.000000  0       3131023.266       3785106.005      -4943296.754
10 0 59683  58080.000000  0       3002280.948       3467504.284      -5247160.822
10 0 59683  58140.000000  0       2858066.671       3136504.773      -5528783.400
10 0 59683  58200.000000  0       2698883.307       2793640.761      -5786983.280
10 0 59683  58260.000000  0       2525309.524       2440489.097      -6020679.551
10 0 59683  58320.000000  0       2337997.502       2078662.756      -6228895.838
10 0 59683  58380.000000  0       2137670.364       1709803.376      -6410764.004
10 0 59683  58440.000000  0       1925119.293       1335573.767      -6565527.430
10 0 59683  58500.000000  0       1701200.356        957650.414      -6692543.836
10 0 59683  58560.000000  0       1466831.017        577716.034      -6791287.690
10 0 59683  58620.000000  0       1222986.304        197452.148      -6861352.200
10 0 59683  58680.000000  0        970694.670       -181468.333      -6902450.762
10 0 59683  58740.000000  0        711033.639       -557388.397      -6914417.858
10 0 59683  58800.000000  0        445125.241       -928674.015      -6897209.526
10 0 59683  58860.000000  0        174131.240      -1293721.085      -6850903.404
10 0 59683  58920.000000  0       -100751.832      -1650962.174      -6775698.326
10 0 59683  58980.000000  0       -378297.875      -1998873.095      -6671913.581
10 0 59683  59040.000000  0       -657256.644      -2335979.361      -6539987.658
10 0 59683  59100.000000  0       -936359.296      -2660862.405      -6380476.454
10 0 59683  59160.000000  0      -1214324.046      -2972165.464      -6194051.009
10 0 59683  59220.000000  0      -1489861.924      -3268599.173      -5981494.884
10 0 59683  59280.000000  0      -1761682.657      -3548946.904      -5743701.107
10 0 59683  59340.000000  0      -2028500.618      -3812069.798      -5481668.694
10 0 59683  59400.000000  0      -2289040.872      -4056911.522      -5196498.746
10 0 59683  59460.000000  0      -2542045.268      -4282502.648      -4889390.034
10 0 59683  59520.000000  0      -2786278.504      -4487964.617      -4561634.157
10 0 59683  59580.000000  0      -3020534.140      -4672513.286      -4214610.294
10 0 59683  59640.000000  0      -3243640.531      -4835462.060      -3849779.589
10 0 59683  59700.000000  0      -3454466.685      -4976224.598      -3468679.175
10 0 59683  59760.000000  0      -3651928.016      -5094317.086      -3072915.831
10 0 59683  59820.000000  0      -3834991.934      -5189360.012      -2664159.280
10 0 59683  59880.000000  0      -4002683.248      -5261079.462      -2244135.199
10 0 59683  59940.000000  0      -4154089.343      -5309307.929      -1814617.925
10 0 59683  60000.000000  0      -4288365.093      -5333984.612      -1377422.914
10 0 59683  60060.000000  0      -4404737.491      -5335155.215       -934398.988
10 0 59683  60120.000000  0      -4502509.950      -5312971.230       -487420.394
10 0 59683  60180.000000  0      -4581066.253      -5267688.715        -38378.740
10 0 59683  60240.000000  0      -4639874.155      -5199666.573        410825.180
10 0 59683  60300.000000  0      -4678488.590      -5109364.331        858289.633
10 0 59683  60360.000000  0      -4696554.435      -4997339.401       1302120.213
10 0 59683  60420.000000  0      -4693808.826      -4864243.866       1740438.041
10 0 59683  60480.000000  0      -4670083.041      -4710820.840       2171387.864
10 0 59683  60540.000000  0      -4625303.925      -4537900.418       2593146.037
10 0 59683  60600.000000  0      -4559494.864      -4346395.218       3003928.344
10 0 59683  60660.000000  0      -4472776.306      -4137295.573       3401997.611
10 0 59683  60720.000000  0      -4365365.805      -3911664.401       3785671.116
10 0 59683  60780.000000  0      -4237577.585      -3670631.732       4153327.752
10 0 59683  60840.000000  0      -4089821.609      -3415388.933       4503414.846
10 0 59683  60900.000000  0      -3922602.210      -3147182.726       4834454.578
10 0 59683  60960.000000  0      -3736516.328      -2867309.052       5145050.071
10 0 59683  61020.000000  0      -3532251.309      -2577106.772       5433891.142
10 0 59683  61080.000000  0      -3310582.294      -2277951.258       5699759.655
10 0 59683  61140.000000  0      -3072369.222      -1971247.886       5941534.537
10 0 59683  61200.000000  0      -2818553.396      -1658425.401       6158196.364
10 0 59683  61260.000000  0      -2550153.714      -1340929.242       6348831.495
10 0 59683  61320.000000  0      -2268262.509      -1020214.817       6512635.794
10 0 59683  61380.000000  0      -1974040.986       -697740.809       6648917.812
10 0 59683  61440.000000  0      -1668714.379       -374962.602       6757101.426
10 0 59683  61500.000000  0      -1353566.921        -53325.873       6836728.074
10 0 59683  61560.000000  0      -1029936.547        265739.782       6887458.667
10 0 59683  61620.000000  0       -699209.278        580827.157       6909075.014
10 0 59683  61680.000000  0       -362813.358        890557.595       6901480.765
10 0 59683  61740.000000  0        -22213.174       1193586.972       6864701.881
10 0 59683  61800.000000  0        321097.035       1488611.513       6798886.673
10 0 59683  61860.000000  0        665599.697       1774373.425       6704305.304
10 0 59683  61920.000000  0       1009760.533       2049666.238       6581348.778
10 0 59683  61980.000000  0       1352035.319       2313339.893       6430527.539
10 0 59683  62040.000000  0       1690876.752       2564305.579       6252469.584
10 0 59683  62100.000000  0       2024741.407       2801540.311       6047918.155
10 0 59683  62160.000000  0       2352096.794       3024091.239       5817728.945
10 0 59683  62220.000000  0       2671428.456       3231079.631       5562866.817
10 0 59683  62280.000000  0       2981247.112       3421704.532       5284402.019
10 0 59683  62340.000000  0       3280095.730       3595246.043       4983505.841
10 0 59683  62400.000000  0       3566556.419       3751068.137       4661445.835
10 0 59683  62460.000000  0       3839257.212       3888621.104       4319580.778
10 0 59683  62520.000000  0       4096878.825       4007443.779       3959355.321
10 0 59683  62580.000000  0       4338161.509       4107165.383       3582293.994
10 0 59683  62640.000000  0       4561911.478       4187506.667       3189994.495
10 0 59683  62700.000000  0       4767006.802       4248280.627       2784120.921
10 0 59683  62760.000000  0       4952403.255       4289392.912       2366396.794
10 0 59683  62820.000000  0       5117139.897       4310841.743       1938597.614
10 0 59683  62880.000000  0       5260344.198       4312717.305       1502543.100
10 0 59683  62940.000000  0       5381236.764       4295200.681       1060089.226
10 0 59683  63000.000000  0       5479135.638       4258562.371        613120.043
10 0 59683  63060.000000  0       5553460.121       4203160.325        163539.307
10 0 59683  63120.000000  0       5603734.021       4129437.499       -286737.959
10 0 59683  63180.000000  0       5629588.453       4037919.037       -735793.889
10 0 59683  63240.000000  0       5630764.138       3929209.025      -1181716.295
10 0 59683  63300.000000  0       5607113.102       3803986.830      -1622607.123
10 0 59683  63360.000000  0       5558599.830       3663003.099      -2056590.819
10 0 59683  63420.000000  0       5485301.845       3507075.399      -2481822.548
10 0 59683  63480.000000  0       5387409.754       3337083.610      -2896496.237
10 0 59683  63540.000000  0       5265226.749       3153965.016      -3298852.422
10 0 59683  63600.000000  0       5119167.568       2958709.189      -3687185.846
10 0 59683  63660.000000  0       4949756.909       2752352.654      -4059852.861
10 0 59683  63720.000000  0       4757627.196       2535973.254      -4415278.436
10 0 59683  63780.000000  0       4543515.898       2310684.420      -4751962.678
10 0 59683  63840.000000  0       4308262.434       2077629.416      -5068487.034
10 0 59683  63900.000000  0       4052804.553       1837975.481      -5363520.129
10 0 59683  63960.000000  0       3778174.298       1592907.948      -5635823.127
10 0 59683  64020.000000  0       3485493.576       1343624.380      -5884254.721
10 0 59683  64080.000000  0       3175969.261       1091328.696      -6107775.684
10 0 59683  64140.000000  0       2850887.962        837225.346      -6305452.849
10 0 59683  64200.000000  0       2511610.499        582513.621      -6476462.670
10 0 59683  64260.000000  0       2159566.061        328382.059      -6620094.319
10 0 59683  64320.000000  0       1796246.169         76002.987      -6735752.309
10 0 59683  64380.000000  0       1423198.356       -173472.811      -6822958.812
10 0 59683  64440.000000  0       1042019.451       -418921.308      -6881355.423
10 0 59683  64500.000000  0        654348.704       -659250.199      -6910704.314
10 0 59683  64560.000000  0        261860.833       -893403.637      -6910888.971
10 0 59683  64620.000000  0       -133741.090      -1120366.753      -6881914.512
10 0 59683  64680.000000  0       -530732.883      -1339169.928      -6823907.606
10 0 59683  64740.000000  0       -927376.695      -1548892.854      -6737115.950
99
